{"fetched_at":"2026-07-14T17:40:45.019Z","source":"https://celestrak.org/NORAD/elements/gp.php?NAME=GLOBAL&FORMAT=JSON","constellation":"blacksky-gen3","records":[{"OBJECT_NAME":"GLOBAL-31","OBJECT_ID":"2025-033B","EPOCH":"2026-07-14T03:38:21.312384","CLASSIFICATION_TYPE":"U","MEAN_MOTION":15.38299733,"ECCENTRICITY":0.0011931,"INCLINATION":58.9962,"RA_OF_ASC_NODE":207.1935,"ARG_OF_PERICENTER":56.2256,"MEAN_ANOMALY":303.9954,"EPHEMERIS_TYPE":0,"NORAD_CAT_ID":63027,"ELEMENT_SET_NO":999,"REV_AT_EPOCH":7847,"BSTAR":0.00015233,"MEAN_MOTION_DOT":0.00005476,"MEAN_MOTION_DDOT":0},{"OBJECT_NAME":"GLOBAL-32","OBJECT_ID":"2025-118B","EPOCH":"2026-07-13T19:57:11.155968","CLASSIFICATION_TYPE":"U","MEAN_MOTION":15.39265365,"ECCENTRICITY":0.0016322,"INCLINATION":58.9935,"RA_OF_ASC_NODE":24.7012,"ARG_OF_PERICENTER":60.6135,"MEAN_ANOMALY":299.6568,"EPHEMERIS_TYPE":0,"NORAD_CAT_ID":64231,"ELEMENT_SET_NO":999,"REV_AT_EPOCH":6234,"BSTAR":0.00020733,"MEAN_MOTION_DOT":0.00007847,"MEAN_MOTION_DDOT":0},{"OBJECT_NAME":"GLOBAL-34","OBJECT_ID":"2026-043A","EPOCH":"2026-07-14T01:35:45.332160","CLASSIFICATION_TYPE":"U","MEAN_MOTION":15.3309273,"ECCENTRICITY":0.0001573,"INCLINATION":42.0216,"RA_OF_ASC_NODE":65.3031,"ARG_OF_PERICENTER":129.821,"MEAN_ANOMALY":230.2767,"EPHEMERIS_TYPE":0,"NORAD_CAT_ID":68098,"ELEMENT_SET_NO":999,"REV_AT_EPOCH":1995,"BSTAR":0.00019553,"MEAN_MOTION_DOT":0.00006137,"MEAN_MOTION_DDOT":0}]}
