GLOBAL-31               
1 63027U 25033B   26195.15163556  .00005476  00000+0  15233-3 0  9994
2 63027  58.9962 207.1935 0011931  56.2256 303.9954 15.38299733 78476
GLOBAL-32               
1 64231U 25118B   26194.83137912  .00007847  00000+0  20733-3 0  9992
2 64231  58.9935  24.7012 0016322  60.6135 299.6568 15.39265365 62343
GLOBAL-34               
1 68098U 26043A   26195.06649690  .00006137  00000+0  19553-3 0  9991
2 68098  42.0216  65.3031 0001573 129.8210 230.2767 15.33092730 19959
